{"type": "FeatureCollection", "features": [ {"type": "Feature", "properties": {"norad_id": 41774, "name": "SKYSAT-C3", "group": "resource", "lat": 19.300471794683986, "lon": -164.5449171867603, "alt_km": 434.16056610320175, "timestamp": "2025-12-04T21:36:15.531763+00:00", "meta": {"OBJECT_NAME": "SKYSAT-C3", "OBJECT_ID": "2016-058E", "EPOCH": "2025-12-04T14:41:23.988480", "MEAN_MOTION": 15.43974595, "ECCENTRICITY": 0.00014016, "INCLINATION": 96.9306, "RA_OF_ASC_NODE": 12.739, "ARG_OF_PERICENTER": 101.9165, "MEAN_ANOMALY": 258.2241, "EPHEMERIS_TYPE": 0, "CLASSIFICATION_TYPE": "U", "NORAD_CAT_ID": 41774, "ELEMENT_SET_NO": 999, "REV_AT_EPOCH": 51600, "BSTAR": 0.00075823552, "MEAN_MOTION_DOT": 0.00034552, "MEAN_MOTION_DDOT": 0}, "tle": {"line1": "1 41774U 16058E   25338.61208320  .00034552  00000+0  75824-3 0  9993", "line2": "2 41774  96.9306  12.7390 0001401 101.9165 258.2241 15.43974595516007"}}, "geometry": {"type": "Point", "coordinates": [-164.5449171867603, 19.300471794683986]}}, {"type": "Feature", "properties": {"norad_id": 41785, "name": "ALSAT 1B", "group": "resource", "lat": -69.46133541971916, "lon": 149.6200532843073, "alt_km": 665.9768645153008, "timestamp": "2025-12-04T21:36:15.531774+00:00", "meta": {"OBJECT_NAME": "ALSAT 1B", "OBJECT_ID": "2016-059C", "EPOCH": "2025-12-04T13:56:36.223584", "MEAN_MOTION": 14.72062713, "ECCENTRICITY": 0.0010444, "INCLINATION": 97.7819, "RA_OF_ASC_NODE": 350.7228, "ARG_OF_PERICENTER": 126.9388, "MEAN_ANOMALY": 233.2778, "EPHEMERIS_TYPE": 0, "CLASSIFICATION_TYPE": "U", "NORAD_CAT_ID": 41785, "ELEMENT_SET_NO": 999, "REV_AT_EPOCH": 49194, "BSTAR": 0.00015621516, "MEAN_MOTION_DOT": 9.35e-06, "MEAN_MOTION_DDOT": 0}, "tle": {"line1": "1 41785U 16059C   25338.58097481  .00000935  00000+0  15622-3 0  9994", "line2": "2 41785  97.7819 350.7228 0010444 126.9388 233.2778 14.72062713491947"}}, "geometry": {"type": "Point", "coordinates": [149.6200532843073, -69.46133541971916]}}, {"type": "Feature", "properties": {"norad_id": 41787, "name": "PATHFINDER 1", "group": "resource", "lat": 74.44200049104923, "lon": -168.40983610189437, "alt_km": 641.4703443870194, "timestamp": "2025-12-04T21:36:15.531784+00:00", "meta": {"OBJECT_NAME": "PATHFINDER 1", "OBJECT_ID": "2016-059E", "EPOCH": "2025-12-04T12:57:09.766368", "MEAN_MOTION": 14.67299377, "ECCENTRICITY": 0.00299894, "INCLINATION": 97.8138, "RA_OF_ASC_NODE": 341.694, "ARG_OF_PERICENTER": 106.1048, "MEAN_ANOMALY": 254.3462, "EPHEMERIS_TYPE": 0, "CLASSIFICATION_TYPE": "U", "NORAD_CAT_ID": 41787, "ELEMENT_SET_NO": 999, "REV_AT_EPOCH": 49116, "BSTAR": 0.0002743957, "MEAN_MOTION_DOT": 1.512e-05, "MEAN_MOTION_DDOT": 0}, "tle": {"line1": "1 41787U 16059E   25338.53969637  .00001512  00000+0  27440-3 0  9995", "line2": "2 41787  97.8138 341.6940 0029989 106.1048 254.3462 14.67299377491161"}}, "geometry": {"type": "Point", "coordinates": [-168.40983610189437, 74.44200049104923]}}, {"type": "Feature", "properties": {"norad_id": 41790, "name": "SCATSAT 1", "group": "resource", "lat": 50.70998026645713, "lon": -134.4430195125511, "alt_km": 592.4243814491183, "timestamp": "2025-12-04T21:36:15.531793+00:00", "meta": {"OBJECT_NAME": "SCATSAT 1", "OBJECT_ID": "2016-059H", "EPOCH": "2025-12-04T14:31:48.298368", "MEAN_MOTION": 14.7889291, "ECCENTRICITY": 0.00558796, "INCLINATION": 98.1475, "RA_OF_ASC_NODE": 35.1743, "ARG_OF_PERICENTER": 153.8037, "MEAN_ANOMALY": 206.602, "EPHEMERIS_TYPE": 0, "CLASSIFICATION_TYPE": "U", "NORAD_CAT_ID": 41790, "ELEMENT_SET_NO": 999, "REV_AT_EPOCH": 7282, "BSTAR": 0.00049794707, "MEAN_MOTION_DOT": 3.711e-05, "MEAN_MOTION_DDOT": 0}, "tle": {"line1": "1 41790U 16059H   25338.60542012  .00003711  00000+0  49795-3 0  9991", "line2": "2 41790  98.1475  35.1743 0055879 153.8037 206.6020 14.78892910 72825"}}, "geometry": {"type": "Point", "coordinates": [-134.4430195125511, 50.70998026645713]}}, {"type": "Feature", "properties": {"norad_id": 41875, "name": "GOKTURK 1A", "group": "resource", "lat": -51.02909891527154, "lon": -118.43514998923168, "alt_km": 691.7810303330725, "timestamp": "2025-12-04T21:36:15.531804+00:00", "meta": {"OBJECT_NAME": "GOKTURK 1A", "OBJECT_ID": "2016-073A", "EPOCH": "2025-12-04T15:16:25.398912", "MEAN_MOTION": 14.62765999, "ECCENTRICITY": 0.00012519, "INCLINATION": 98.143, "RA_OF_ASC_NODE": 231.1097, "ARG_OF_PERICENTER": 81.9031, "MEAN_ANOMALY": 278.2313, "EPHEMERIS_TYPE": 0, "CLASSIFICATION_TYPE": "U", "NORAD_CAT_ID": 41875, "ELEMENT_SET_NO": 999, "REV_AT_EPOCH": 48038, "BSTAR": 0.00039493706, "MEAN_MOTION_DOT": 1.967e-05, "MEAN_MOTION_DDOT": 0}, "tle": {"line1": "1 41875U 16073A   25338.63640508  .00001967  00000+0  39494-3 0  9999", "line2": "2 41875  98.1430 231.1097 0001251  81.9031 278.2313 14.62765999480383"}}, "geometry": {"type": "Point", "coordinates": [-118.43514998923168, -51.02909891527154]}}, {"type": "Feature", "properties": {"norad_id": 41877, "name": "RESOURCESAT-2A", "group": "resource", "lat": 74.58570310659249, "lon": 14.72359311205343, "alt_km": 813.4897212905971, "timestamp": "2025-12-04T21:36:15.531814+00:00", "meta": {"OBJECT_NAME": "RESOURCESAT-2A", "OBJECT_ID": "2016-074A", "EPOCH": "2025-12-04T14:29:07.183968", "MEAN_MOTION": 14.21594262, "ECCENTRICITY": 0.00011543, "INCLINATION": 98.7766, "RA_OF_ASC_NODE": 48.5067, "ARG_OF_PERICENTER": 295.4726, "MEAN_ANOMALY": 64.6332, "EPHEMERIS_TYPE": 0, "CLASSIFICATION_TYPE": "U", "NORAD_CAT_ID": 41877, "ELEMENT_SET_NO": 999, "REV_AT_EPOCH": 46665, "BSTAR": 0.00018169114, "MEAN_MOTION_DOT": 3.54e-06, "MEAN_MOTION_DDOT": 0}, "tle": {"line1": "1 41877U 16074A   25338.60355537  .00000354  00000+0  18169-3 0  9999", "line2": "2 41877  98.7766  48.5067 0001154 295.4726  64.6332 14.21594262466655"}}, "geometry": {"type": "Point", "coordinates": [14.72359311205343, 74.58570310659249]}}, {"type": "Feature", "properties": {"norad_id": 41948, "name": "CARTOSAT-2D", "group": "resource", "lat": -34.06874978359361, "lon": -148.55278717901774, "alt_km": 510.8267793608902, "timestamp": "2025-12-04T21:36:15.531825+00:00", "meta": {"OBJECT_NAME": "CARTOSAT-2D", "OBJECT_ID": "2017-008A", "EPOCH": "2025-12-04T09:35:58.959744", "MEAN_MOTION": 15.193643, "ECCENTRICITY": 0.00050359, "INCLINATION": 97.4403, "RA_OF_ASC_NODE": 36.0246, "ARG_OF_PERICENTER": 193.9037, "MEAN_ANOMALY": 166.206, "EPHEMERIS_TYPE": 0, "CLASSIFICATION_TYPE": "U", "NORAD_CAT_ID": 41948, "ELEMENT_SET_NO": 999, "REV_AT_EPOCH": 48800, "BSTAR": 3.087492e-06, "MEAN_MOTION_DOT": -2e-08, "MEAN_MOTION_DDOT": 0}, "tle": {"line1": "1 41948U 17008A   25338.39998796 -.00000002  00000+0  30875-5 0  9993", "line2": "2 41948  97.4403  36.0246 0005035 193.9037 166.2060 15.19364300488004"}}, "geometry": {"type": "Point", "coordinates": [-148.55278717901774, -34.06874978359361]}}, {"type": "Feature", "properties": {"norad_id": 42063, "name": "SENTINEL-2B", "group": "resource", "lat": 33.23672646185903, "lon": -122.87127102289335, "alt_km": 786.4009421144838, "timestamp": "2025-12-04T21:36:15.531835+00:00", "meta": {"OBJECT_NAME": "SENTINEL-2B", "OBJECT_ID": "2017-013A", "EPOCH": "2025-12-04T15:53:17.472192", "MEAN_MOTION": 14.30811201, "ECCENTRICITY": 0.00011247, "INCLINATION": 98.5726, "RA_OF_ASC_NODE": 51.2211, "ARG_OF_PERICENTER": 98.1596, "MEAN_ANOMALY": 261.9714, "EPHEMERIS_TYPE": 0, "CLASSIFICATION_TYPE": "U", "NORAD_CAT_ID": 42063, "ELEMENT_SET_NO": 999, "REV_AT_EPOCH": 45682, "BSTAR": 0.00014636017, "MEAN_MOTION_DOT": 3.4e-06, "MEAN_MOTION_DDOT": 0}, "tle": {"line1": "1 42063U 17013A   25338.66200778  .00000340  00000+0  14636-3 0  9993", "line2": "2 42063  98.5726  51.2211 0001124  98.1596 261.9714 14.30811201456828"}}, "geometry": {"type": "Point", "coordinates": [-122.87127102289335, 33.23672646185903]}}, {"type": "Feature", "properties": {"norad_id": 42767, "name": "CARTOSAT-2E", "group": "resource", "lat": 55.74948560468127, "lon": -132.3194474625494, "alt_km": 504.3937499375934, "timestamp": "2025-12-04T21:36:15.531845+00:00", "meta": {"OBJECT_NAME": "CARTOSAT-2E", "OBJECT_ID": "2017-036C", "EPOCH": "2025-12-04T14:44:21.871392", "MEAN_MOTION": 15.19195373, "ECCENTRICITY": 0.00022675, "INCLINATION": 97.4573, "RA_OF_ASC_NODE": 36.3068, "ARG_OF_PERICENTER": 279.8288, "MEAN_ANOMALY": 80.269, "EPHEMERIS_TYPE": 0, "CLASSIFICATION_TYPE": "U", "NORAD_CAT_ID": 42767, "ELEMENT_SET_NO": 999, "REV_AT_EPOCH": 46860, "BSTAR": 0.00056135276, "MEAN_MOTION_DOT": 0.00011755, "MEAN_MOTION_DDOT": 0}, "tle": {"line1": "1 42767U 17036C   25338.61414203  .00011755  00000+0  56135-3 0  9996", "line2": "2 42767  97.4573  36.3068 0002267 279.8288  80.2690 15.19195373468603"}}, "geometry": {"type": "Point", "coordinates": [-132.3194474625494, 55.74948560468127]}}, {"type": "Feature", "properties": {"norad_id": 42920, "name": "FORMOSAT-5", "group": "resource", "lat": -59.5225617086208, "lon": 67.63984551072834, "alt_km": 722.7861250877068, "timestamp": "2025-12-04T21:36:15.531855+00:00", "meta": {"OBJECT_NAME": "FORMOSAT-5", "OBJECT_ID": "2017-049A", "EPOCH": "2025-12-04T15:15:44.659584", "MEAN_MOTION": 14.50997918, "ECCENTRICITY": 0.00102406, "INCLINATION": 98.2461, "RA_OF_ASC_NODE": 53.1154, "ARG_OF_PERICENTER": 322.6945, "MEAN_ANOMALY": 37.3538, "EPHEMERIS_TYPE": 0, "CLASSIFICATION_TYPE": "U", "NORAD_CAT_ID": 42920, "ELEMENT_SET_NO": 999, "REV_AT_EPOCH": 43846, "BSTAR": 0.00014417299, "MEAN_MOTION_DOT": 5.26e-06, "MEAN_MOTION_DDOT": 0}, "tle": {"line1": "1 42920U 17049A   25338.63593356  .00000526  00000+0  14417-3 0  9991", "line2": "2 42920  98.2461  53.1154 0010240 322.6945  37.3538 14.50997918438463"}}, "geometry": {"type": "Point", "coordinates": [67.63984551072834, -59.5225617086208]}}]}